{
  "norad_id": 57992,
  "name": "STARLINK-30534",
  "history": [
    {
      "epoch": "2026-03-28T22:33:51.473376",
      "apogee_km": 483.310257070586,
      "perigee_km": 482.7078484471531,
      "latitude_deg": 36.47372537931884,
      "longitude_deg": 69.45719264005311,
      "semi_major_axis_km": 6861.146052758869,
      "eccentricity": 4.39e-05,
      "inclination_deg": 43.001,
      "raan_deg": 318.0631,
      "arg_perigee_deg": 252.3353,
      "mean_anomaly_deg": 107.745,
      "mean_motion_rev_day": 15.27593373
    }
  ]
}