{"fetched_at":"2026-03-29T16:36:15Z","count":15609,"tles":[{"name":"STARLINK-30534","line1":"1 57992U 23153B   26087.94017909  .00009185  00000+0  34274-3 0  9993","line2":"2 57992  43.0010 318.0631 0000439 252.3353 107.7450 15.27593373137744","category":"Starlink"}]}